{"type": "FeatureCollection", "features": [ {"type": "Feature", "properties": {"norad_id": 30690, "name": "FENGYUN 1C DEB", "group": "fengyun-1c-debris", "lat": 78.14153549118012, "lon": 155.43061692495186, "alt_km": 822.5586163822918, "timestamp": "2025-12-20T18:51:31.992197+00:00", "meta": {"OBJECT_NAME": "FENGYUN 1C DEB", "OBJECT_ID": "1999-025AQY", "EPOCH": "2025-12-19T18:34:05.877696", "MEAN_MOTION": 14.023529, "ECCENTRICITY": 0.01050646, "INCLINATION": 99.1595, "RA_OF_ASC_NODE": 284.2053, "ARG_OF_PERICENTER": 56.8346, "MEAN_ANOMALY": 333.076, "EPHEMERIS_TYPE": 0, "CLASSIFICATION_TYPE": "U", "NORAD_CAT_ID": 30690, "ELEMENT_SET_NO": 999, "REV_AT_EPOCH": 95806, "BSTAR": 0.0010429438, "MEAN_MOTION_DOT": 1.635e-05, "MEAN_MOTION_DDOT": 0}, "tle": {"line1": "1 30690U 99025AQY 25353.77367914  .00001635  00000+0  10429-2 0  9997", "line2": "2 30690  99.1595 284.2053 0105064  56.8346 333.0760 14.02352900958066"}}, "geometry": {"type": "Point", "coordinates": [155.43061692495186, 78.14153549118012]}}, {"type": "Feature", "properties": {"norad_id": 30691, "name": "FENGYUN 1C DEB", "group": "fengyun-1c-debris", "lat": 75.67627343350763, "lon": -31.35525940377818, "alt_km": 991.3313971236894, "timestamp": "2025-12-20T18:51:31.992207+00:00", "meta": {"OBJECT_NAME": "FENGYUN 1C DEB", "OBJECT_ID": "1999-025AQZ", "EPOCH": "2025-12-20T12:18:07.947072", "MEAN_MOTION": 13.89454613, "ECCENTRICITY": 0.01395633, "INCLINATION": 98.7431, "RA_OF_ASC_NODE": 5.4501, "ARG_OF_PERICENTER": 211.769, "MEAN_ANOMALY": 302.2708, "EPHEMERIS_TYPE": 0, "CLASSIFICATION_TYPE": "U", "NORAD_CAT_ID": 30691, "ELEMENT_SET_NO": 999, "REV_AT_EPOCH": 95224, "BSTAR": 0.00085586977, "MEAN_MOTION_DOT": 1.089e-05, "MEAN_MOTION_DDOT": 0}, "tle": {"line1": "1 30691U 99025AQZ 25354.51259198  .00001089  00000+0  85587-3 0  9996", "line2": "2 30691  98.7431   5.4501 0139563 211.7690 302.2708 13.89454613952249"}}, "geometry": {"type": "Point", "coordinates": [-31.35525940377818, 75.67627343350763]}}, {"type": "Feature", "properties": {"norad_id": 30693, "name": "FENGYUN 1C DEB", "group": "fengyun-1c-debris", "lat": 15.18294138726911, "lon": 162.05494205724943, "alt_km": 828.7248637867924, "timestamp": "2025-12-20T18:51:31.992217+00:00", "meta": {"OBJECT_NAME": "FENGYUN 1C DEB", "OBJECT_ID": "1999-025ARB", "EPOCH": "2025-12-19T18:17:48.382656", "MEAN_MOTION": 14.13294641, "ECCENTRICITY": 0.0029624, "INCLINATION": 98.6863, "RA_OF_ASC_NODE": 338.6839, "ARG_OF_PERICENTER": 147.4592, "MEAN_ANOMALY": 212.8415, "EPHEMERIS_TYPE": 0, "CLASSIFICATION_TYPE": "U", "NORAD_CAT_ID": 30693, "ELEMENT_SET_NO": 999, "REV_AT_EPOCH": 97034, "BSTAR": 0.00023552165, "MEAN_MOTION_DOT": 4.01e-06, "MEAN_MOTION_DDOT": 0}, "tle": {"line1": "1 30693U 99025ARB 25353.76236554  .00000401  00000+0  23552-3 0  9996", "line2": "2 30693  98.6863 338.6839 0029624 147.4592 212.8415 14.13294641970349"}}, "geometry": {"type": "Point", "coordinates": [162.05494205724943, 15.18294138726911]}}, {"type": "Feature", "properties": {"norad_id": 30694, "name": "FENGYUN 1C DEB", "group": "fengyun-1c-debris", "lat": 19.457801717090728, "lon": -41.134493407681305, "alt_km": 639.7528103971845, "timestamp": "2025-12-20T18:51:31.992228+00:00", "meta": {"OBJECT_NAME": "FENGYUN 1C DEB", "OBJECT_ID": "1999-025ARC", "EPOCH": "2025-12-20T10:41:36.889440", "MEAN_MOTION": 14.86673157, "ECCENTRICITY": 0.01296776, "INCLINATION": 99.0476, "RA_OF_ASC_NODE": 321.7056, "ARG_OF_PERICENTER": 270.0119, "MEAN_ANOMALY": 88.6233, "EPHEMERIS_TYPE": 0, "CLASSIFICATION_TYPE": "U", "NORAD_CAT_ID": 30694, "ELEMENT_SET_NO": 999, "REV_AT_EPOCH": 210, "BSTAR": 0.00087160145, "MEAN_MOTION_DOT": 8.958e-05, "MEAN_MOTION_DDOT": 0}, "tle": {"line1": "1 30694U 99025ARC 25354.44556585  .00008958  00000+0  87160-3 0  9992", "line2": "2 30694  99.0476 321.7056 0129677 270.0119  88.6233 14.86673157  2106"}}, "geometry": {"type": "Point", "coordinates": [-41.134493407681305, 19.457801717090728]}}, {"type": "Feature", "properties": {"norad_id": 30696, "name": "FENGYUN 1C DEB", "group": "fengyun-1c-debris", "lat": -10.019395629430079, "lon": -137.79250961088738, "alt_km": 744.3832698979422, "timestamp": "2025-12-20T18:51:31.992239+00:00", "meta": {"OBJECT_NAME": "FENGYUN 1C DEB", "OBJECT_ID": "1999-025ARE", "EPOCH": "2025-12-20T09:45:50.507712", "MEAN_MOTION": 14.44801834, "ECCENTRICITY": 0.00897537, "INCLINATION": 98.3881, "RA_OF_ASC_NODE": 43.3272, "ARG_OF_PERICENTER": 102.8445, "MEAN_ANOMALY": 276.2437, "EPHEMERIS_TYPE": 0, "CLASSIFICATION_TYPE": "U", "NORAD_CAT_ID": 30696, "ELEMENT_SET_NO": 999, "REV_AT_EPOCH": 98415, "BSTAR": 0.00052600877, "MEAN_MOTION_DOT": 1.875e-05, "MEAN_MOTION_DDOT": 0}, "tle": {"line1": "1 30696U 99025ARE 25354.40683458  .00001875  00000+0  52601-3 0  9993", "line2": "2 30696  98.3881  43.3272 0089753 102.8445 276.2437 14.44801834984155"}}, "geometry": {"type": "Point", "coordinates": [-137.79250961088738, -10.019395629430079]}}, {"type": "Feature", "properties": {"norad_id": 30697, "name": "FENGYUN 1C DEB", "group": "fengyun-1c-debris", "lat": 44.53836412587247, "lon": -119.53026442587148, "alt_km": 787.0569596578443, "timestamp": "2025-12-20T18:51:31.992249+00:00", "meta": {"OBJECT_NAME": "FENGYUN 1C DEB", "OBJECT_ID": "1999-025ARF", "EPOCH": "2025-12-20T03:04:02.203392", "MEAN_MOTION": 14.1355912, "ECCENTRICITY": 0.00881598, "INCLINATION": 98.906, "RA_OF_ASC_NODE": 50.9387, "ARG_OF_PERICENTER": 164.6844, "MEAN_ANOMALY": 223.9866, "EPHEMERIS_TYPE": 0, "CLASSIFICATION_TYPE": "U", "NORAD_CAT_ID": 30697, "ELEMENT_SET_NO": 999, "REV_AT_EPOCH": 96365, "BSTAR": 0.00097926429, "MEAN_MOTION_DOT": 1.871e-05, "MEAN_MOTION_DDOT": 0}, "tle": {"line1": "1 30697U 99025ARF 25354.12780328  .00001871  00000+0  97926-3 0  9992", "line2": "2 30697  98.9060  50.9387 0088159 164.6844 223.9866 14.13559120963651"}}, "geometry": {"type": "Point", "coordinates": [-119.53026442587148, 44.53836412587247]}}, {"type": "Feature", "properties": {"norad_id": 30699, "name": "FENGYUN 1C DEB", "group": "fengyun-1c-debris", "lat": 27.29943387509149, "lon": -60.08198664411382, "alt_km": 733.7047042566383, "timestamp": "2025-12-20T18:51:31.992259+00:00", "meta": {"OBJECT_NAME": "FENGYUN 1C DEB", "OBJECT_ID": "1999-025ARH", "EPOCH": "2025-12-19T13:56:45.140928", "MEAN_MOTION": 14.47033924, "ECCENTRICITY": 0.0004734, "INCLINATION": 99.3124, "RA_OF_ASC_NODE": 113.7361, "ARG_OF_PERICENTER": 237.9991, "MEAN_ANOMALY": 122.0739, "EPHEMERIS_TYPE": 0, "CLASSIFICATION_TYPE": "U", "NORAD_CAT_ID": 30699, "ELEMENT_SET_NO": 999, "REV_AT_EPOCH": 97712, "BSTAR": 0.0014611, "MEAN_MOTION_DOT": 5.27e-05, "MEAN_MOTION_DDOT": 0}, "tle": {"line1": "1 30699U 99025ARH 25353.58107802  .00005270  00000+0  14611-2 0  9999", "line2": "2 30699  99.3124 113.7361 0004734 237.9991 122.0739 14.47033924977124"}}, "geometry": {"type": "Point", "coordinates": [-60.08198664411382, 27.29943387509149]}}, {"type": "Feature", "properties": {"norad_id": 30700, "name": "FENGYUN 1C DEB", "group": "fengyun-1c-debris", "lat": -65.2116672932579, "lon": 41.85993663683678, "alt_km": 882.1082616479771, "timestamp": "2025-12-20T18:51:31.992270+00:00", "meta": {"OBJECT_NAME": "FENGYUN 1C DEB", "OBJECT_ID": "1999-025ARJ", "EPOCH": "2025-12-20T00:37:24.534624", "MEAN_MOTION": 14.23800013, "ECCENTRICITY": 0.00873342, "INCLINATION": 98.5408, "RA_OF_ASC_NODE": 22.1322, "ARG_OF_PERICENTER": 122.2843, "MEAN_ANOMALY": 238.6834, "EPHEMERIS_TYPE": 0, "CLASSIFICATION_TYPE": "U", "NORAD_CAT_ID": 30700, "ELEMENT_SET_NO": 999, "REV_AT_EPOCH": 97673, "BSTAR": 0.00013453361, "MEAN_MOTION_DOT": 2.78e-06, "MEAN_MOTION_DDOT": 0}, "tle": {"line1": "1 30700U 99025ARJ 25354.02597841  .00000278  00000+0  13453-3 0  9995", "line2": "2 30700  98.5408  22.1322 0087334 122.2843 238.6834 14.23800013976733"}}, "geometry": {"type": "Point", "coordinates": [41.85993663683678, -65.2116672932579]}}, {"type": "Feature", "properties": {"norad_id": 30701, "name": "FENGYUN 1C DEB", "group": "fengyun-1c-debris", "lat": 22.30019756056303, "lon": 32.277501521603874, "alt_km": 831.7345302915455, "timestamp": "2025-12-20T18:51:31.992280+00:00", "meta": {"OBJECT_NAME": "FENGYUN 1C DEB", "OBJECT_ID": "1999-025ARK", "EPOCH": "2025-12-20T08:38:03.036768", "MEAN_MOTION": 14.13935175, "ECCENTRICITY": 0.00357385, "INCLINATION": 98.7172, "RA_OF_ASC_NODE": 35.4698, "ARG_OF_PERICENTER": 81.6802, "MEAN_ANOMALY": 293.9986, "EPHEMERIS_TYPE": 0, "CLASSIFICATION_TYPE": "U", "NORAD_CAT_ID": 30701, "ELEMENT_SET_NO": 999, "REV_AT_EPOCH": 97227, "BSTAR": 1.9842004e-05, "MEAN_MOTION_DOT": -5e-08, "MEAN_MOTION_DDOT": 0}, "tle": {"line1": "1 30701U 99025ARK 25354.35975737 -.00000005  00000+0  19842-4 0  9994", "line2": "2 30701  98.7172  35.4698 0035738  81.6802 293.9986 14.13935175972275"}}, "geometry": {"type": "Point", "coordinates": [32.277501521603874, 22.30019756056303]}}, {"type": "Feature", "properties": {"norad_id": 30702, "name": "FENGYUN 1C DEB", "group": "fengyun-1c-debris", "lat": 27.912451677138662, "lon": 9.649407946033152, "alt_km": 896.3257303585433, "timestamp": "2025-12-20T18:51:31.992290+00:00", "meta": {"OBJECT_NAME": "FENGYUN 1C DEB", "OBJECT_ID": "1999-025ARL", "EPOCH": "2025-12-19T12:40:02.320032", "MEAN_MOTION": 14.03609648, "ECCENTRICITY": 0.0068875, "INCLINATION": 98.7688, "RA_OF_ASC_NODE": 13.1264, "ARG_OF_PERICENTER": 282.5064, "MEAN_ANOMALY": 232.0541, "EPHEMERIS_TYPE": 0, "CLASSIFICATION_TYPE": "U", "NORAD_CAT_ID": 30702, "ELEMENT_SET_NO": 999, "REV_AT_EPOCH": 96257, "BSTAR": 0.00075116, "MEAN_MOTION_DOT": 1.161e-05, "MEAN_MOTION_DDOT": 0}, "tle": {"line1": "1 30702U 99025ARL 25353.52780463  .00001161  00000+0  75116-3 0  9991", "line2": "2 30702  98.7688  13.1264 0068875 282.5064 232.0541 14.03609648962575"}}, "geometry": {"type": "Point", "coordinates": [9.649407946033152, 27.912451677138662]}}]}